NORAD_CAT_ID,OBJECT_NAME,OBJECT_TYPE,EPOCH,MEAN_MOTION,ECCENTRICITY,INCLINATION,RA_OF_ASC_NODE,ARG_OF_PERICENTER,MEAN_ANOMALY,BSTAR,MEAN_MOTION_DOT,MEAN_MOTION_DDOT,TLE_LINE0,TLE_LINE1,TLE_LINE2,SEMIMAJOR_AXIS,PERIOD,APOGEE,PERIGEE,DECAYED
53999.0,STARLINK-5079,PAYLOAD,2022-11-19 06:00:00,15.49884322,9.15e-05,53.2158,233.448,120.0436,204.1805,0.00084371,0.00047725,0.0,0 STARLINK-5079,1 53999U 22125AM  22323.25001157  .00047725  00000-0  84371-3 0  9991,2 53999  53.2158 233.4480 0000915 120.0436 204.1805 15.49884322  7346,6795.201,92.91,417.68800000000016,416.444,0.0
53999.0,STARLINK-5079,PAYLOAD,2022-11-19 14:00:01,15.49888079,0.0001085,53.216,231.853,134.5518,250.6134,0.00098632,0.00055934,0.0,0 STARLINK-5079,1 53999U 22125AM  22323.58334491  .00055934  00000-0  98632-3 0  9993,2 53999  53.2160 231.8530 0001085 134.5518 250.6134 15.49888079  1301,6795.19,92.91,417.792,416.318,0.0
53999.0,STARLINK-5079,PAYLOAD,2022-11-19 20:00:01,15.49936453,0.0001109,53.2163,230.6586,133.1749,207.6856,-4.374300000000001e-05,-2.938e-05,0.0,0 STARLINK-5079,1 53999U 22125AM  22323.83334491 -.00002938  00000-0 -43743-4 0  9993,2 53999  53.2163 230.6586 0001109 133.1749 207.6856 15.49936453  7433,6795.049,92.907,417.667,416.16,0.0
53999.0,STARLINK-5079,PAYLOAD,2022-11-19 22:00:00,15.49939207,0.0001047,53.2163,230.2609,129.7272,316.3716,-0.00032791,-0.00019052,0.0,0 STARLINK-5079,1 53999U 22125AM  22323.91667824 -.00019052  00000-0 -32791-3 0  9996,2 53999  53.2163 230.2609 0001047 129.7272 316.3716 15.49939207  1301,6795.041,92.907,417.617,416.194,0.0
53999.0,STARLINK-5079,PAYLOAD,2022-11-20 14:00:01,15.49922759,0.0001125,53.2166,227.0735,127.7334,80.3213,-0.00049222,-0.00028323,0.0,0 STARLINK-5079,1 53999U 22125AM  22324.58334491 -.00028323  00000-0 -49222-3 0  9999,2 53999  53.2166 227.0735 0001125 127.7334  80.3213 15.49922759  1306,6795.089,92.908,417.718,416.189,0.0
53999.0,STARLINK-5079,PAYLOAD,2022-11-20 22:00:00,15.49913018,0.0001225,53.2169,225.4816,118.8604,150.1386,-0.00023754,-0.00013922,0.0,0 STARLINK-5079,1 53999U 22125AM  22324.91667824 -.00013922  00000-0 -23754-3 0  9996,2 53999  53.2169 225.4816 0001225 118.8604 150.1386 15.49913018  7607,6795.1169999999975,92.908,417.815,416.15,0.0
53999.0,STARLINK-5079,PAYLOAD,2022-11-21 14:00:01,15.49884082,0.0001330999999999,53.2169,222.2942,119.4239,271.4693,-0.00016214,-9.642e-05,0.0,0 STARLINK-5079,1 53999U 22125AM  22325.58334491 -.00009642  00000-0 -16214-3 0  9998,2 53999  53.2169 222.2942 0001331 119.4239 271.4693 15.49884082  1308,6795.2019999999975,92.91,417.971,416.162,0.0
53999.0,STARLINK-5079,PAYLOAD,2022-11-21 22:00:00,15.49885938,0.0001401,53.2168,220.7027,111.2588,340.5365,-0.00034173,-0.00019798,0.0,0 STARLINK-5079,1 53999U 22125AM  22325.91667824 -.00019798  00000-0 -34173-3 0  9991,2 53999  53.2168 220.7027 0001401 111.2588 340.5365 15.49885938  1304,6795.196,92.91,418.013,416.109,0.0
53999.0,STARLINK-5079,PAYLOAD,2022-11-22 06:00:02,15.49879914,0.0001318,53.2163,219.1089,107.6976,45.0664,0.00037628,0.00020958,0.0,0 STARLINK-5079,1 53999U 22125AM  22326.25002315  .00020958  00000-0  37628-3 0  9993,2 53999  53.2163 219.1089 0001318 107.6976  45.0664 15.49879914  7814,6795.214,92.91,417.975,416.1830000000001,0.0
53999.0,STARLINK-5079,PAYLOAD,2022-11-22 14:00:01,15.50047291,0.0001357,53.2167,217.5104,124.2173,89.4453,-0.011326,-0.00599744,0.0,0 STARLINK-5079,1 53999U 22125AM  22326.58335648 -.00599744  00000-0 -11326-1 0  9998,2 53999  53.2167 217.5104 0001357 124.2173  89.4453 15.50047291  7865,6794.725,92.9,417.512,415.668,0.0
53999.0,STARLINK-5079,PAYLOAD,2022-11-22 22:00:00,15.49684192,0.0001388,53.2174,215.9169,131.858,142.6086,-0.015827,-0.00817291,0.0,0 STARLINK-5079,1 53999U 22125AM  22326.91667824 -.00817291  00000-0 -15827-1 0  9999,2 53999  53.2174 215.9169 0001388 131.8580 142.6086 15.49684192  1308,6795.786,92.922,418.594,416.708,0.0
53999.0,STARLINK-5079,PAYLOAD,2022-11-23 06:00:00,15.48889026,0.0001176,53.2168,214.3244,112.9832,221.9141,-0.016807,-0.00841483,0.0,0 STARLINK-5079,1 53999U 22125AM  22327.25001157 -.00841483  00000-0 -16807-1 0  9997,2 53999  53.2168 214.3244 0001176 112.9832 221.9141 15.48889026  7966,6798.111999999999,92.97,420.776,419.177,0.0
53999.0,STARLINK-5079,PAYLOAD,2022-11-23 14:00:01,15.48276255,0.0001142,53.2173,212.732,117.825,276.4377,-0.023262,-0.01141835,0.0,0 STARLINK-5079,1 53999U 22125AM  22327.58334491 -.01141835  00000-0 -23262-1 0  9991,2 53999  53.2173 212.7320 0001142 117.8250 276.4377 15.48276255  8028,6799.905,93.007,422.547,420.994,0.0
53999.0,STARLINK-5079,PAYLOAD,2022-11-23 22:00:00,15.47464387,0.0001334,53.2172,211.1464,125.1774,327.5683,-0.024004,-0.01144938,0.0,0 STARLINK-5079,1 53999U 22125AM  22327.91667824 -.01144938  00000-0 -24004-1 0  9999,2 53999  53.2172 211.1464 0001334 125.1774 327.5683 15.47464387  1301,6802.284000000002,93.055,425.056,423.241,0.0
53999.0,STARLINK-5079,PAYLOAD,2022-11-24 06:00:02,15.46667259,0.0001279,53.2167,209.5605,110.4952,39.8127,-0.025171,-0.01165715,0.0,0 STARLINK-5079,1 53999U 22125AM  22328.25002315 -.01165715  00000-0 -25171-1 0  9997,2 53999  53.2167 209.5605 0001279 110.4952  39.8127 15.46667259  8121,6804.621,93.103,427.356,425.615,0.0
53999.0,STARLINK-5079,PAYLOAD,2022-11-24 14:00:01,15.45844631,0.0001315,53.2171,207.9743,111.435,95.344,-0.02564,-0.01155031,0.0,0 STARLINK-5079,1 53999U 22125AM  22328.58334491 -.01155031  00000-0 -25640-1 0  9997,2 53999  53.2171 207.9743 0001315 111.4350  95.3440 15.45844631  1303,6807.034000000002,93.153,429.795,428.004,0.0
53999.0,STARLINK-5079,PAYLOAD,2022-11-24 22:00:00,15.450366199999998,0.0001467,53.2173,206.3934,124.6115,137.7147,-0.026529,-0.0116166,0.0,0 STARLINK-5079,1 53999U 22125AM  22328.91667824 -.01161660  00000-0 -26529-1 0  9995,2 53999  53.2173 206.3934 0001467 124.6115 137.7147 15.45036620  1309,6809.406999999997,93.202,432.271,430.274,0.0
53999.0,STARLINK-5079,PAYLOAD,2022-11-25 06:00:00,15.44226208,0.0001295,53.2168,204.8129,115.3017,201.5969,-0.027415,-0.01167,0.0,0 STARLINK-5079,1 53999U 22125AM  22329.25001157 -.01167000  00000-0 -27415-1 0  9993,2 53999  53.2168 204.8129 0001295 115.3017 201.5969 15.44226208  8276,6811.79,93.251,434.537,432.773,0.0
53999.0,STARLINK-5079,PAYLOAD,2022-11-25 14:00:01,15.43392307,0.0001154,53.2171,203.2329,108.058,262.4466,-0.027453,-0.01138445,0.0,0 STARLINK-5079,1 53999U 22125AM  22329.58334491 -.01138445  00000-0 -27453-1 0  9992,2 53999  53.2171 203.2329 0001154 108.0580 262.4466 15.43392307  1301,6814.243,93.301,436.894,435.322,0.0
53999.0,STARLINK-5079,PAYLOAD,2022-11-25 22:00:00,15.42623076,0.0001319,53.2174,201.6579,121.8747,301.225,-0.029819,-0.0119888,0.0,0 STARLINK-5079,1 53999U 22125AM  22329.91667824 -.01198880  00000-0 -29819-1 0  9995,2 53999  53.2174 201.6579 0001319 121.8747 301.2250 15.42623076  1306,6816.5080000000025,93.347,439.272,437.474,0.0
53999.0,STARLINK-5079,PAYLOAD,2022-11-26 14:00:01,15.40964258,0.0001369,53.217,198.5091,103.8532,61.5647,-0.030296,-0.01156011,0.0,0 STARLINK-5079,1 53999U 22125AM  22330.58334491 -.01156011  00000-0 -30296-1 0  9992,2 53999  53.2170 198.5091 0001369 103.8532  61.5647 15.40964258  8482,6821.399,93.448,444.198,442.33,0.0
53999.0,STARLINK-5079,PAYLOAD,2022-11-26 22:00:00,15.4015505,0.000144,53.2173,196.9396,122.0522,93.0475,-0.031315,-0.01162488,0.0,0 STARLINK-5079,1 53999U 22125AM  22330.91667824 -.01162488  00000-0 -31315-1 0  9996,2 53999  53.2173 196.9396 0001440 122.0522  93.0475 15.40155050  1302,6823.788000000001,93.497,446.636,444.671,0.0
53999.0,STARLINK-5079,PAYLOAD,2022-11-27 14:00:01,15.38530284,0.0001184,53.2168,193.8025,102.9581,208.5745,-0.033079,-0.01163555,0.0,0 STARLINK-5079,1 53999U 22125AM  22331.58334491 -.01163555  00000-0 -33079-1 0  9996,2 53999  53.2168 193.8025 0001184 102.9581 208.5745 15.38530284  8637,6828.592,93.596,451.265,449.648,0.0
53999.0,STARLINK-5079,PAYLOAD,2022-11-27 22:00:00,15.37713259,0.0001363,53.2171,192.2393,126.031,232.254,-0.033889,-0.0116083,0.0,0 STARLINK-5079,1 53999U 22125AM  22331.91667824 -.01160830  00000-0 -33889-1 0  9994,2 53999  53.2171 192.2393 0001363 126.0310 232.2540 15.37713259  1306,6831.01,93.646,453.806,451.944,0.0
53999.0,STARLINK-5079,PAYLOAD,2022-11-28 22:00:01,15.35265906,0.0001462,53.217,187.556,120.7335,12.0037,-0.036387,-0.01152086,0.0,0 STARLINK-5079,1 53999U 22125AM  22332.91668981 -.01152086  00000-0 -36387-1 0  9990,2 53999  53.2170 187.5560 0001462 120.7335  12.0037 15.35265906  8846,6838.268,93.795,461.133,459.133,0.0
53999.0,STARLINK-5079,PAYLOAD,2022-11-29 14:00:01,15.33646627,0.0001398,53.2167,184.4416,108.2707,109.1633,-0.038658,-0.01161232,0.0,0 STARLINK-5079,1 53999U 22125AM  22333.58335648 -.01161232  00000-0 -38658-1 0  9991,2 53999  53.2167 184.4416 0001398 108.2707 109.1633 15.33646627  1305,6843.08,93.894,465.902,463.989,0.0
53999.0,STARLINK-5079,PAYLOAD,2022-11-29 22:00:00,15.3282699,0.0001523,53.2171,182.8902,124.2344,134.0213,-0.039401,-0.0115386,0.0,0 STARLINK-5079,1 53999U 22125AM  22333.91667824 -.01153860  00000-0 -39401-1 0  9997,2 53999  53.2171 182.8902 0001523 124.2344 134.0213 15.32826990  8992,6845.52,93.944,468.427,466.342,0.0
53999.0,STARLINK-5079,PAYLOAD,2022-11-30 14:00:01,15.31186105,0.0001505,53.2175,179.7862,132.0213,205.1401,-0.040742,-0.01134769,0.0,0 STARLINK-5079,1 53999U 22125AM  22334.58335648 -.01134769  00000-0 -40742-1 0  9994,2 53999  53.2175 179.7862 0001505 132.0213 205.1401 15.31186105  1301,6850.409000000002,94.045,473.305,471.24300000000005,0.0
53999.0,STARLINK-5079,PAYLOAD,2022-11-30 22:00:00,15.30374964,0.0001365,53.2174,178.2405,125.9058,249.1398,-0.041987,-0.01139642,0.0,0 STARLINK-5079,1 53999U 22125AM  22334.91667824 -.01139642  00000-0 -41987-1 0  9992,2 53999  53.2174 178.2405 0001365 125.9058 249.1398 15.30374964  9154,6852.83,94.095,475.63,473.759,0.0
